OBJECT_NAME,OBJECT_ID,EPOCH,MEAN_MOTION,ECCENTRICITY,INCLINATION,RA_OF_ASC_NODE,ARG_OF_PERICENTER,MEAN_ANOMALY,EPHEMERIS_TYPE,CLASSIFICATION_TYPE,NORAD_CAT_ID,ELEMENT_SET_NO,REV_AT_EPOCH,BSTAR,MEAN_MOTION_DOT,MEAN_MOTION_DDOT
GEOSCAN 3 (RS92S3),2025-155T,2026-07-16T04:26:45.597408,15.36329114,.0008585,97.4554,167.4230,84.8013,275.4210,0,U,64893,999,8530,.28193E-3,.9917E-4,0
INNOSAT 3 (RS92S0),2025-155U,2026-07-16T04:49:21.033696,15.45866201,.0008206,97.4499,169.4387,88.3048,271.9141,0,U,64894,999,8544,.4611E-3,.22359E-3,0
KNACKSAT-2,1998-067XZ,2026-07-16T02:09:51.604704,15.62464930,.0007936,51.6274,148.8130,330.8548,29.2002,0,U,67683,999,2479,.38453E-3,.34521E-3,0
