GEOSCAN-3 (RS92S3)
1 64893U 25155T   26197.18524997  .00009917  00000-0  28193-3 0  9990
2 64893  97.4554 167.4230 0008585  84.8013 275.4210 15.36329114 85301
INNOSAT3 (RS92S0)
1 64894U 25155U   26197.20093789  .00022359  00000-0  46110-3 0  9998
2 64894  97.4499 169.4387 0008206  88.3048 271.9141 15.45866201 85444
KNACKSAT-2
1 67683U 98067XZ  26197.09018061  .00034521  00000-0  38453-3 0  9991
2 67683  51.6274 148.8130 0007936 330.8548  29.2002 15.62464930 24795
